[{"OBJECT_NAME":"STARLINK-31516","OBJECT_ID":"2024-046W","EPOCH":"2026-03-09T13:29:10.523040","MEAN_MOTION":15.3018646,"ECCENTRICITY":0.0001351,"INCLINATION":53.1608,"RA_OF_ASC_NODE":155.6669,"ARG_OF_PERICENTER":127.9911,"MEAN_ANOMALY":232.1212,"EPHEMERIS_TYPE":0,"CLASSIFICATION_TYPE":"U","NORAD_CAT_ID":59221,"ELEMENT_SET_NO":999,"REV_AT_EPOCH":11302,"BSTAR":-4.2693e-5,"MEAN_MOTION_DOT":-1.623e-5,"MEAN_MOTION_DDOT":0},{"OBJECT_NAME":"JINJUSAT-1B","OBJECT_ID":"2025-052A","EPOCH":"2026-03-09T15:55:38.242848","MEAN_MOTION":15.30194857,"ECCENTRICITY":0.00055504,"INCLINATION":97.4113,"RA_OF_ASC_NODE":325.4613,"ARG_OF_PERICENTER":82.193,"MEAN_ANOMALY":277.9941,"EPHEMERIS_TYPE":0,"CLASSIFICATION_TYPE":"U","NORAD_CAT_ID":63210,"ELEMENT_SET_NO":999,"REV_AT_EPOCH":5486,"BSTAR":0.00068430401,"MEAN_MOTION_DOT":0.00019955,"MEAN_MOTION_DDOT":0}]
